QZS-1R                  
1 49336U 21096A   23291.79568656 -.00000186  00000+0  00000+0 0  9996
2 49336  35.4454  94.2339 0746886 270.0697  84.3177  1.00277500  7258
